% program   : PPKINS.py (FGO three-pass: float / hold / PPK-INS)
% inp file  : /home/peterxin/下载/test/phenomate_processing/app/webapp/jobs/8794d9b35a9e/rover.26O
% inp file  : /home/peterxin/下载/test/phenomate_processing/app/webapp/jobs/8794d9b35a9e/base.26o
% inp file  : /home/peterxin/下载/test/phenomate_processing/app/webapp/jobs/8794d9b35a9e/brdc_20260611.rnx
% imu file  : /home/peterxin/下载/test/phenomate_processing/app/webapp/jobs/8794d9b35a9e/imu.csv
% obs start : 2026/06/11 03:16:08.0 GPST (week2422 357368.0s)
% obs end   : 2026/06/11 03:18:41.0 GPST (week2422 357521.0s)
% solution  : Pass 3 PPK/INS fix-and-hold (1 Hz)
% pos mode  : Kinematic
% freqs     : L1+L2
% elev mask : 15.0 deg
% ionos opt : Broadcast
% tropo opt : Saastamoinen
% ephemeris : Broadcast
% navi sys  : GPS Galileo BDS
% amb res   : Fix-and-Hold (LAMBDA)
% val thres : 2.0
% ref pos   : -3928368.4036 3460499.8261 -3631172.9794
%
% (lat/lon/height=WGS84/ellipsoidal,Q=1:fix,2:float,3:sbas,4:dgps,5:single,6:ppp,ns=# of satellites)
%  GPST            latitude(d'")   longitude(d'")  height(m)   Q  ns    ve(m/s)  vn(m/s)  vu(m/s)  roll(deg) pitch(deg)  yaw(deg)  ratio
2422 357368.000    -34 58 17.37084     138 38 23.93116   165.5086   1  13   0.0079  -0.0037  -0.0413   179.3247    -0.3521     0.0016 22232.3
2422 357369.000    -34 58 17.37083     138 38 23.93108   165.5075   1  13   0.0000  -0.0027   0.0020   179.3766    -0.3785     0.0012 23770.3
2422 357370.000    -34 58 17.37093     138 38 23.93125   165.5099   1  13   0.0009  -0.0002   0.0039   179.3375    -0.3717     0.0012 24788.9
2422 357371.000    -34 58 17.37088     138 38 23.93113   165.5108   1  13  -0.0009   0.0013  -0.0015   179.3354    -0.3680     0.0012 22289.5
2422 357372.000    -34 58 17.37086     138 38 23.93119   165.5088   1  13  -0.0001   0.0002   0.0009   179.3299    -0.3751     0.0012 21675.6
2422 357373.000    -34 58 17.37086     138 38 23.93115   165.5106   1  13  -0.0002  -0.0007   0.0025   179.3266    -0.3595     0.0011 21119.3
2422 357374.000    -34 58 17.37092     138 38 23.93116   165.5098   1  13  -0.0005  -0.0008   0.0014   179.3312    -0.3614     0.0011 21693.4
2422 357375.000    -34 58 17.37088     138 38 23.93111   165.5120   1  13  -0.0020   0.0018   0.0025   179.3286    -0.3480     0.0011 18708.3
2422 357376.000    -34 58 17.37084     138 38 23.93104   165.5126   1  12  -0.0011   0.0017   0.0037   179.3413    -0.3122     0.0010 20422.3
2422 357377.000    -34 58 17.37077     138 38 23.93093   165.5167   1  13  -0.0012  -0.0005  -0.0011   179.3391    -0.3622     0.0011 18145.4
2422 357378.000    -34 58 17.37088     138 38 23.93105   165.5115   1  13   0.0046  -0.0033  -0.0040   179.3517    -0.3466     0.0011 21131.3
2422 357379.000    -34 58 17.37090     138 38 23.93120   165.5053   1  13   0.0004   0.0021  -0.0027   179.3219    -0.3482     0.0011 23578.7
2422 357380.000    -34 58 17.37082     138 38 23.93107   165.5090   1  13  -0.0024  -0.0002   0.0021   179.3331    -0.3745     0.0012 20041.0
2422 357381.000    -34 58 17.37088     138 38 23.93115   165.5043   1  12   0.0025  -0.0007  -0.0032   179.3396    -0.3309     0.0010 23310.5
2422 357382.000    -34 58 17.37086     138 38 23.93115   165.5027   1  13   0.0003  -0.0004   0.0022   179.3452    -0.3328     0.0010 19893.6
2422 357383.000    -34 58 17.37089     138 38 23.93115   165.5063   1  13  -0.0009  -0.0003   0.0008   179.3298    -0.3535     0.0011 20818.2
2422 357384.000    -34 58 17.37089     138 38 23.93114   165.5043   1  12   0.0005  -0.0007  -0.0008   179.3268    -0.3317     0.0010 23216.7
2422 357385.000    -34 58 17.37091     138 38 23.93114   165.5046   1  13  -0.0007   0.0009  -0.0038   179.3257    -0.3357     0.0011 18323.3
2422 357386.000    -34 58 17.37085     138 38 23.93111   165.4981   1  13   0.0009  -0.0002  -0.0000   179.3274    -0.3470     0.0011 22976.7
2422 357387.000    -34 58 17.37088     138 38 23.93119   165.5037   1  13  -0.0009   0.0002   0.0022   179.2901    -0.3317     0.0010 22023.3
2422 357388.000    -34 58 17.37089     138 38 23.93106   165.5024   1  13  -0.0004  -0.0013  -0.0004   179.3213    -0.3241     0.0010 17999.5
2422 357389.000    -34 58 17.37090     138 38 23.93116   165.5017   1  12   0.0006   0.0009   0.0027   179.2913    -0.3154     0.0010 20317.3
2422 357390.000    -34 58 17.37087     138 38 23.93108   165.5046   1  13   0.0003  -0.0007  -0.0008   179.2900    -0.3362     0.0011 17455.9
2422 357391.000    -34 58 17.37092     138 38 23.93123   165.4990   1  13  -0.0012   0.0010  -0.0008   179.2939    -0.3400     0.0011 20826.0
2422 357392.000    -34 58 17.37083     138 38 23.93103   165.5005   1  13  -0.0036   0.0005  -0.0003   179.3137    -0.3274     0.0011 20702.7
2422 357393.000    -34 58 17.37087     138 38 23.93106   165.5002   1  13   0.0008  -0.0014  -0.0001   179.2979    -0.2879     0.0009 18138.9
2422 357394.000    -34 58 17.37090     138 38 23.93107   165.4967   1  12  -0.0003   0.0006   0.0023   179.2824    -0.2998     0.0010 21671.7
2422 357395.000    -34 58 17.37085     138 38 23.93111   165.5032   1  13  -0.0002   0.0007   0.0039   179.2882    -0.2939     0.0010 15955.4
2422 357396.000    -34 58 17.37089     138 38 23.93113   165.5019   1  12  -0.0014  -0.0011   0.0009   179.3237    -0.3030     0.0010 21885.6
2422 357397.000    -34 58 17.37083     138 38 23.93098   165.5025   1  12  -0.0213   0.0006  -0.0004   179.2641    -0.3203     0.0011 21652.8
2422 357398.000    -34 58 17.37090     138 38 23.93108   165.4999   1  12   0.0419  -0.0058  -0.0179   179.2037     0.5760    -0.0013 22097.7
2422 357399.000    -34 58 17.37270     138 38 23.93031   165.5107   1  12  -0.0994  -0.0514   0.0265   179.7080    -1.6523     0.0044 23791.0
2422 357400.000    -34 58 17.37183     138 38 23.92983   165.4971   1  12   0.0411   0.0506   0.0006   178.8248    -0.3530     0.0018 22066.1
2422 357401.000    -34 58 17.37156     138 38 23.93035   165.5027   1  12   0.0070  -0.0165   0.0066   179.3739    -0.2422     0.0009 23423.6
2422 357402.000    -34 58 17.37144     138 38 23.93053   165.4999   1  13   0.0005   0.0091  -0.0042   179.1458    -0.4140     0.0015 17776.1
2422 357403.000    -34 58 17.37143     138 38 23.93051   165.5023   1  12  -0.0153  -0.0066   0.0069   179.2704    -0.2490     0.0012 24357.9
2422 357404.000    -34 58 17.37139     138 38 23.93052   165.5054   1  12   0.0425  -0.0027  -0.0088   179.0711     0.6321    -0.0017 23002.4
2422 357405.000    -34 58 17.37212     138 38 23.92983   165.4905   1  13  -0.1296  -0.0627   0.0301   178.8994    -2.0257     0.0073 19349.7
2422 357406.000    -34 58 17.37582     138 38 23.92526   165.4921   1  13  -0.0150  -0.0853  -0.0491   179.6246     0.0427     0.0005 16255.6
2422 357407.000    -34 58 17.37565     138 38 23.92578   165.5005   1  12  -0.0094   0.0306   0.0251   178.9654    -0.0927     0.0014 20162.5
2422 357408.000    -34 58 17.37558     138 38 23.92613   165.4995   1  12  -0.0338   0.0196  -0.0049   179.5452     0.9906    -0.0523 22344.5
2422 357409.000    -34 58 17.37859     138 38 23.92304   165.5152   1  12  -0.1043  -0.2287   0.0493   178.8665    -0.9473  -131.3071 23697.9
2422 357410.000    -34 58 17.38496     138 38 23.91612   165.5381   1  13  -0.1955  -0.1878  -0.0131   179.4738    -0.4837  -130.3712 17052.6
2422 357411.000    -34 58 17.39165     138 38 23.90954   165.5222   1  13  -0.1646  -0.2217  -0.0074   179.4251    -0.4610  -129.6255 16748.1
2422 357412.000    -34 58 17.39834     138 38 23.90266   165.5175   1  12  -0.1771  -0.1916   0.0110   179.4167    -0.5325  -131.8020 20442.2
2422 357413.000    -34 58 17.40464     138 38 23.89545   165.5364   1  11  -0.1881  -0.2044   0.0096   179.1739    -0.3365  -131.7944 27150.9
2422 357414.000    -34 58 17.41125     138 38 23.88864   165.5386   1  12  -0.1577  -0.2054   0.0025   179.1698    -0.8477  -129.7631 25380.9
2422 357415.000    -34 58 17.41792     138 38 23.88201   165.5546   1  12  -0.1847  -0.1989   0.0156   179.2909    -0.6270  -131.9041 26860.1
2422 357416.000    -34 58 17.42406     138 38 23.87468   165.5498   1  12  -0.1739  -0.1934  -0.0095   179.1982    -0.7535  -131.9012 21322.2
2422 357417.000    -34 58 17.43056     138 38 23.86823   165.5453   1  12  -0.1571  -0.1940  -0.0124   179.3215    -0.9704  -130.1380 21615.1
2422 357418.000    -34 58 17.43702     138 38 23.86140   165.5406   1  12  -0.1859  -0.2131  -0.0043   179.1297    -0.4886  -130.7142 23886.2
2422 357419.000    -34 58 17.44350     138 38 23.85469   165.5452   1  13  -0.1571  -0.1935   0.0188   179.2502    -1.1306  -129.6084 17920.2
2422 357420.000    -34 58 17.45025     138 38 23.84809   165.5669   1  13  -0.1964  -0.2191   0.0111   179.4705    -0.9532  -131.2231 18928.5
2422 357421.000    -34 58 17.45717     138 38 23.84016   165.5702   1  13  -0.1809  -0.2177   0.0135   179.1074    -1.2902  -131.7388 21396.6
2422 357422.000    -34 58 17.46397     138 38 23.83323   165.5755   1  13  -0.1705  -0.2087   0.0063   179.5747    -1.3883  -129.3792 21400.2
2422 357423.000    -34 58 17.47099     138 38 23.82638   165.5837   1  13  -0.1949  -0.2150   0.0057   179.8736    -1.3737  -130.1920 22866.8
2422 357424.000    -34 58 17.47793     138 38 23.81891   165.6019   1  13  -0.1817  -0.2352  -0.0024   179.5937    -1.8492  -130.4550 23573.2
2422 357425.000    -34 58 17.48458     138 38 23.81229   165.5816   1  13  -0.1369  -0.1138   0.0060  -179.9375    -2.9602  -133.2097 19891.7
2422 357426.000    -34 58 17.48833     138 38 23.80704   165.5928   1  12  -0.0752  -0.1054   0.0013   179.5635    -0.4919  -133.2048 24868.6
2422 357427.000    -34 58 17.48840     138 38 23.80748   165.5911   1  12   0.0022   0.0200  -0.0021  -179.9931    -0.8404  -133.2058 24767.6
2422 357428.000    -34 58 17.48841     138 38 23.80756   165.5914   1  12   0.0938   0.0366  -0.0325   179.4943    -0.9593  -133.2058 23990.8
2422 357429.000    -34 58 17.48582     138 38 23.81100   165.5731   1  12  -0.0049   0.0511   0.0454  -179.4557    -1.1234  -133.2058 24605.5
2422 357430.000    -34 58 17.48632     138 38 23.81004   165.5945   1  12  -0.0021  -0.0773  -0.0065   179.5038    -0.8948  -133.2051 26882.5
2422 357431.000    -34 58 17.48658     138 38 23.81004   165.5871   1  12  -0.0823   0.0594   0.0162  -179.7673    -2.7083  -133.2765 22929.2
2422 357432.000    -34 58 17.48481     138 38 23.81109   165.6181   1  12   0.2434   0.1549  -0.0299   179.1875    -0.2820    50.8286 20904.6
2422 357433.000    -34 58 17.47614     138 38 23.82040   165.5702   1  13   0.2261   0.2490  -0.0096   179.4570    -0.6981    47.6980 15515.5
2422 357434.000    -34 58 17.46791     138 38 23.82979   165.5616   1  13   0.2824   0.2469   0.0013   179.3459     0.2861    47.9703 22658.4
2422 357435.000    -34 58 17.45944     138 38 23.83862   165.5615   1  13   0.1722   0.3029  -0.0558   176.9306     0.7347    57.1370 19012.7
2422 357436.000    -34 58 17.44792     138 38 23.84553   165.5532   1  13   0.2603   0.2667   0.0555  -179.3108    -0.0798    56.7062 19181.1
2422 357437.000    -34 58 17.43944     138 38 23.85463   165.5502   1  13   0.1498   0.3165  -0.0085   179.1515     0.2431    52.3254 21758.1
2422 357438.000    -34 58 17.43059     138 38 23.86172   165.5485   1  13   0.1899   0.2473   0.0084   178.7641    -0.1565    54.5684 22216.6
2422 357439.000    -34 58 17.42223     138 38 23.86951   165.5453   1  13   0.2188   0.2653  -0.0152   179.0601     0.2397    53.0052 20912.0
2422 357440.000    -34 58 17.41362     138 38 23.87727   165.5275   1  13   0.1723   0.2458   0.0042   178.9321    -0.3804    54.2917 23228.5
2422 357441.000    -34 58 17.40487     138 38 23.88468   165.5346   1  13   0.2173   0.2408   0.0048   179.1436     0.2567    55.0485 23892.2
2422 357442.000    -34 58 17.39611     138 38 23.89215   165.5344   1  13   0.1772   0.3205  -0.0322   177.3147     1.1237    43.8125 19299.3
2422 357443.000    -34 58 17.39046     138 38 23.90286   165.5646   1  13   0.3042   0.0777   0.0821  -178.1420    -0.3348    46.1545 20112.3
2422 357444.000    -34 58 17.38090     138 38 23.90992   165.5341   1  11   0.1300   0.3581  -0.0515   178.8151    -0.2178    55.6259 22298.4
2422 357445.000    -34 58 17.37245     138 38 23.91785   165.5231   1  13   0.2537   0.2309  -0.0025   179.0882    -0.0174    50.5567 18267.9
2422 357446.000    -34 58 17.36433     138 38 23.92645   165.5164   1  13   0.2162   0.2130  -0.0070   179.1686    -0.5337    48.8460 22036.8
2422 357447.000    -34 58 17.35624     138 38 23.93508   165.5199   1  13   0.2373   0.2458   0.0206   177.7141     0.5138    46.0628 21324.4
2422 357448.000    -34 58 17.34862     138 38 23.94483   165.5203   1  13   0.2825   0.2019  -0.0030  -179.9672     0.9247    39.1431 23970.1
2422 357449.000    -34 58 17.34193     138 38 23.95644   165.5104   1  13   0.2922   0.2239  -0.0164  -179.1536     0.0565    40.5858 23751.1
2422 357450.000    -34 58 17.33412     138 38 23.96541   165.5071   1  13   0.1890   0.2260  -0.0004   178.8768    -0.1441    45.0836 24085.5
2422 357451.000    -34 58 17.32676     138 38 23.97481   165.5006   1  13   0.2567   0.2382  -0.0303   178.8830     1.5052    41.6800 21787.0
2422 357452.000    -34 58 17.32129     138 38 23.98290   165.4890   1  12   0.1151   0.0614   0.0421   179.6089    -0.9353    45.3795 25279.0
2422 357453.000    -34 58 17.32065     138 38 23.98215   165.5036   1  12  -0.0442  -0.0084  -0.0039   178.8431    -2.6516    45.3853 25448.4
2422 357454.000    -34 58 17.31805     138 38 23.98450   165.4895   1  12   0.1183   0.0852  -0.0577   179.0217     1.3593    45.3773 22811.8
2422 357455.000    -34 58 17.31731     138 38 23.98541   165.5039   1  13  -0.1514   0.0806   0.0010   179.4269     2.6454    45.3066 18272.1
2422 357456.000    -34 58 17.32158     138 38 23.98203   165.5094   1  12   0.0930  -0.1746   0.0790   179.2425    -3.5669  -130.5239 26558.4
2422 357457.000    -34 58 17.32248     138 38 23.98009   165.4979   1  12  -0.0797  -0.0384  -0.0239   179.0772     0.0484  -130.5833 25426.4
2422 357458.000    -34 58 17.32243     138 38 23.98015   165.4974   1  12  -0.1233  -0.1738  -0.0147   178.9853     1.2445  -131.1395 23895.9
2422 357459.000    -34 58 17.32950     138 38 23.97258   165.4857   1  12  -0.1789  -0.1585  -0.0292   179.7408    -1.2875  -132.9497 20513.9
2422 357460.000    -34 58 17.33716     138 38 23.96353   165.5083   1  13  -0.2226  -0.3034   0.0438   179.3455     0.0079  -133.9034 16327.4
2422 357461.000    -34 58 17.34496     138 38 23.95447   165.4994   1  13  -0.4046  -0.0567   0.0113  -179.7185    -0.1305  -147.7609 19664.9
2422 357462.000    -34 58 17.35003     138 38 23.93879   165.5223   1  13  -0.1560  -0.3161   0.0020   177.0538    -0.6191  -142.1488 6190.5
2422 357463.000    -34 58 17.35910     138 38 23.93241   165.5287   1  13  -0.2678  -0.2610  -0.0161  -179.4057     0.1670  -129.8613  409.8
2422 357464.000    -34 58 17.36659     138 38 23.92188   165.5276   1  13  -0.2069  -0.2854   0.0104   177.8687    -0.6152  -137.2334    7.5
2422 357465.000    -34 58 17.37439     138 38 23.91236   165.5341   2  13  -0.2694  -0.2003  -0.0030   178.9447    -0.8164  -133.3606    1.6
2422 357466.000    -34 58 17.38271     138 38 23.90344   165.5354   1  13  -0.1857  -0.2941   0.0150   178.8753    -0.0330  -129.7773   60.2
2422 357467.000    -34 58 17.39120     138 38 23.89536   165.5397   1  13  -0.2508  -0.2340  -0.0027   179.7081     0.5516  -133.0588 18020.7
2422 357468.000    -34 58 17.39899     138 38 23.88498   165.5444   1  13  -0.2101  -0.3025  -0.0044   177.2009    -1.0400  -134.8552 4084.5
2422 357469.000    -34 58 17.40771     138 38 23.87543   165.5488   1  13  -0.2551  -0.2115  -0.0067   178.7348    -1.1433  -127.9721  152.1
2422 357470.000    -34 58 17.41658     138 38 23.86825   165.5445   2  13  -0.1732  -0.2975  -0.0018   178.8056    -0.6139  -123.8305    1.6
2422 357471.000    -34 58 17.42557     138 38 23.86086   165.5419   2  13  -0.1738  -0.2630  -0.0003   178.7025    -0.9839  -123.6736    1.8
2422 357472.000    -34 58 17.43478     138 38 23.85356   165.5605   1  13  -0.1965  -0.2984   0.0158   178.8055    -0.0348  -122.7556  482.4
2422 357473.000    -34 58 17.44389     138 38 23.84661   165.5524   2  13  -0.1595  -0.3031  -0.0009   178.5673    -0.5174  -121.0350    1.4
2422 357474.000    -34 58 17.45378     138 38 23.83964   165.5610   1  13  -0.1898  -0.3210   0.0126   179.3661    -1.0343  -119.1156   68.0
2422 357475.000    -34 58 17.46424     138 38 23.83278   165.5813   1  13  -0.1816  -0.3169   0.0297   179.4520    -2.2631  -118.6063 14329.9
2422 357476.000    -34 58 17.47510     138 38 23.82555   165.6010   1  13  -0.1507  -0.3253   0.0023   179.0038    -2.0127  -118.2105 15957.6
2422 357477.000    -34 58 17.48509     138 38 23.81919   165.5916   1  13  -0.2083  -0.3283  -0.0070   179.8689    -1.6946  -118.2109 21923.2
2422 357478.000    -34 58 17.49468     138 38 23.81277   165.5929   1  13  -0.0706  -0.1791  -0.0492   179.5210    -3.2938  -118.4956 21969.4
2422 357479.000    -34 58 17.49981     138 38 23.80949   165.5663   1  13  -0.1021  -0.1137   0.0436  -179.8072    -0.5814  -118.4916 20845.3
2422 357480.000    -34 58 17.49987     138 38 23.80916   165.5710   1  13   0.0249   0.0133  -0.0269   179.5172    -1.2047  -118.4928 17997.5
2422 357481.000    -34 58 17.50001     138 38 23.80918   165.5645   1  12  -0.0152  -0.0287   0.0059   179.4557    -1.0322  -118.4925 22014.4
2422 357482.000    -34 58 17.49999     138 38 23.80934   165.5676   1  12   0.0681   0.0919   0.0113   179.3925    -1.9043  -118.4943 21114.8
2422 357483.000    -34 58 17.49682     138 38 23.81138   165.5747   1  13  -0.0281   0.0041  -0.0009   179.8810    -0.0906  -118.4918 18774.4
2422 357484.000    -34 58 17.49691     138 38 23.81119   165.5738   1  13   0.0032   0.0050  -0.0102   179.5518    -1.4320  -118.4939 20334.4
2422 357485.000    -34 58 17.49711     138 38 23.81118   165.5763   1  13   0.0550   0.0397   0.0082   179.2216    -1.9763  -118.4265 19172.8
2422 357486.000    -34 58 17.49411     138 38 23.81324   165.5701   1  13   0.0780   0.1445   0.0067   179.2595    -0.5816    60.2928 18338.7
2422 357487.000    -34 58 17.48895     138 38 23.81685   165.5815   1  13   0.0855   0.1447   0.0065   179.1164    -1.1258    60.3156 4010.3
2422 357488.000    -34 58 17.48334     138 38 23.82071   165.5871   1  13   0.1010   0.1940   0.0072   178.8131    -0.4703    61.8907  114.1
2422 357489.000    -34 58 17.47733     138 38 23.82438   165.6009   2  13   0.0580   0.1873   0.0273   179.4066    -0.9316    66.6370    1.0
2422 357490.000    -34 58 17.47008     138 38 23.82763   165.6040   1  13   0.0671   0.2260  -0.0396   178.0064    -0.6887    70.3994  308.9
2422 357491.000    -34 58 17.46341     138 38 23.83041   165.5786   1  13   0.1177   0.1882  -0.0115   178.3069    -0.1678    69.7789    2.1
2422 357492.000    -34 58 17.45651     138 38 23.83373   165.5756   2  13   0.0900   0.2070  -0.0096   178.5671    -0.0040    66.7075    1.0
2422 357493.000    -34 58 17.45010     138 38 23.83733   165.5523   1  13   0.0786   0.1946  -0.0262   178.2756    -0.0086    66.8378    2.1
2422 357494.000    -34 58 17.44383     138 38 23.84030   165.5382   1  13   0.1022   0.1626  -0.0047   178.3346    -0.0558    67.0109  317.7
2422 357495.000    -34 58 17.43782     138 38 23.84377   165.5421   2  13   0.1212   0.1527   0.0379   176.4317     0.3352    57.9209    1.0
2422 357496.000    -34 58 17.43266     138 38 23.84879   165.5577   1  13   0.1157   0.1873  -0.0126   177.3193    -0.3130    36.2407  105.8
2422 357497.000    -34 58 17.42894     138 38 23.85841   165.5412   1  13   0.2423   0.1011  -0.0387  -177.9313     1.0875    30.3933 2363.2
2422 357498.000    -34 58 17.42464     138 38 23.86540   165.5538   1  13   0.0744   0.1665   0.0282   178.8291     0.0600    54.4256 16707.0
2422 357499.000    -34 58 17.41883     138 38 23.86723   165.5604   1  12   0.1479   0.1419   0.0289   177.7163    -0.2433    59.4169 19055.5
2422 357500.000    -34 58 17.41397     138 38 23.87309   165.5719   1  13   0.1662   0.1150  -0.0309   179.0241    -0.6733    46.0169 14693.7
2422 357501.000    -34 58 17.40918     138 38 23.87851   165.5422   1  12   0.1219   0.1595  -0.0129   178.5627    -0.6607    48.0220 21443.1
2422 357502.000    -34 58 17.40408     138 38 23.88389   165.5500   1  12   0.1469   0.1494  -0.0024   178.6101    -0.2333    49.2542 23085.7
2422 357503.000    -34 58 17.39916     138 38 23.88898   165.5387   1  12   0.1025   0.1678   0.0145   178.5955    -0.1546    48.3097 20576.8
2422 357504.000    -34 58 17.39413     138 38 23.89466   165.5501   1  13   0.1931   0.0835   0.0106   179.7116     0.6092    45.7244 14874.4
2422 357505.000    -34 58 17.38975     138 38 23.90016   165.5530   1  12   0.1160   0.1913  -0.0003   177.5954    -0.2430    40.0968 20656.4
2422 357506.000    -34 58 17.38558     138 38 23.90696   165.5657   1  12   0.1745   0.1186  -0.0103   179.2674    -0.5918    39.9610 21874.3
2422 357507.000    -34 58 17.38106     138 38 23.91274   165.5527   1  12   0.1405   0.1574  -0.0049   178.5663    -0.2724    43.5053 19913.0
2422 357508.000    -34 58 17.37640     138 38 23.91873   165.5546   1  12   0.1319   0.1291  -0.0055   178.5754    -0.2958    43.9823 21081.7
2422 357509.000    -34 58 17.37205     138 38 23.92409   165.5375   1  13   0.1560   0.1535  -0.0007   178.6167     0.3554    44.1230 20069.2
2422 357510.000    -34 58 17.36746     138 38 23.92995   165.5248   1  13   0.1502   0.1376  -0.0100   178.7622     0.0705    43.8651 20191.6
2422 357511.000    -34 58 17.36294     138 38 23.93560   165.5369   1  13   0.1344   0.1352   0.0014   178.6354    -0.3329    44.5356 16079.4
2422 357512.000    -34 58 17.35810     138 38 23.94149   165.5326   1  13   0.1459   0.1492  -0.0012   178.6418    -0.0930    44.0550 23101.8
2422 357513.000    -34 58 17.35364     138 38 23.94728   165.5257   1  13   0.1570   0.1413  -0.0013   178.7595     0.3750    43.5197 25804.2
2422 357514.000    -34 58 17.34897     138 38 23.95317   165.5166   1  13   0.1506   0.1420  -0.0114   178.8150     0.2674    42.8233 23858.8
2422 357515.000    -34 58 17.34467     138 38 23.95904   165.5041   1  13   0.1322   0.1217  -0.0172   178.8390     0.1549    43.2587 25371.5
2422 357516.000    -34 58 17.33999     138 38 23.96477   165.5012   1  13   0.1564   0.1579   0.0016   178.7666     1.0451    45.3566 23288.6
2422 357517.000    -34 58 17.33609     138 38 23.96933   165.5043   1  13   0.0324   0.0660   0.0145   178.3862    -0.1790    45.3597 23356.9
2422 357518.000    -34 58 17.33598     138 38 23.96918   165.5167   1  13   0.0161  -0.0343  -0.0003   179.2199    -0.2102    45.3603 18997.8
2422 357519.000    -34 58 17.33583     138 38 23.96948   165.5072   1  12  -0.0118   0.0292  -0.0037   178.4015    -0.0127    45.3596 23862.3
2422 357520.000    -34 58 17.33583     138 38 23.96960   165.5032   1  12   0.0307  -0.0103  -0.0166   178.8401    -0.0939    45.3597 23352.3
2422 357521.000    -34 58 17.33580     138 38 23.96956   165.5072   1  12  -0.0549   0.0036   0.0113   178.0223    -0.6760    45.3612 22980.7
