% program   : web_app.py (PPKINS → IMU (INS))
% extrinsic : t=[+0.000000 +0.000000 +0.000000] m (IMU body, CAD origin)
% ant1 lever: [-0.2500 +0.0100 +0.0323] m (solved point → IMU re-centre)
% note      : position = CAD part origin (NOT phase centre / optical centre)
% attitude  : physical (accel gravity + gyro-z, theta0=-49.99 deg, 34 dv events)
% (Q=1:fix,2:float — inherited from the PPK solution)
%  GPST            latitude(d'")   longitude(d'")  height(m)   Q  ve(m/s)  vn(m/s)  vu(m/s)  roll(deg) pitch(deg)  yaw(deg)
2422 357368.000    -34 58 17.36589     138 38 23.92335   165.5425   1   0.0079  -0.0036  -0.0415   179.5136    -0.3752   140.0489
2422 357369.000    -34 58 17.36588     138 38 23.92328   165.5413   1   0.0001  -0.0026   0.0020   179.5153    -0.3726   140.0333
2422 357370.000    -34 58 17.36597     138 38 23.92344   165.5438   1   0.0009  -0.0002   0.0039   179.5136    -0.3666   139.9990
2422 357371.000    -34 58 17.36592     138 38 23.92333   165.5446   1  -0.0010   0.0013  -0.0015   179.5122    -0.3631   140.0037
2422 357372.000    -34 58 17.36590     138 38 23.92339   165.5427   1  -0.0001   0.0002   0.0008   179.5155    -0.3589   140.0013
2422 357373.000    -34 58 17.36591     138 38 23.92335   165.5444   1  -0.0002  -0.0006   0.0025   179.5167    -0.3599   139.9950
2422 357374.000    -34 58 17.36597     138 38 23.92336   165.5436   1  -0.0005  -0.0008   0.0014   179.5202    -0.3586   139.9891
2422 357375.000    -34 58 17.36592     138 38 23.92331   165.5458   1  -0.0020   0.0018   0.0025   179.5147    -0.3555   139.9966
2422 357376.000    -34 58 17.36589     138 38 23.92324   165.5465   1  -0.0012   0.0017   0.0037   179.5142    -0.3558   139.9976
2422 357377.000    -34 58 17.36582     138 38 23.92313   165.5505   1  -0.0012  -0.0004  -0.0011   179.5147    -0.3521   139.9846
2422 357378.000    -34 58 17.36592     138 38 23.92325   165.5453   1   0.0046  -0.0033  -0.0040   179.5162    -0.3478   139.9880
2422 357379.000    -34 58 17.36594     138 38 23.92340   165.5391   1   0.0004   0.0021  -0.0027   179.5165    -0.3472   139.9969
2422 357380.000    -34 58 17.36586     138 38 23.92326   165.5427   1  -0.0024  -0.0001   0.0021   179.5161    -0.3443   139.9928
2422 357381.000    -34 58 17.36592     138 38 23.92335   165.5381   1   0.0025  -0.0006  -0.0032   179.5158    -0.3431   139.9912
2422 357382.000    -34 58 17.36590     138 38 23.92335   165.5365   1   0.0003  -0.0005   0.0022   179.5144    -0.3465   139.9875
2422 357383.000    -34 58 17.36594     138 38 23.92335   165.5401   1  -0.0008  -0.0003   0.0008   179.5095    -0.3435   139.9858
2422 357384.000    -34 58 17.36593     138 38 23.92334   165.5381   1   0.0005  -0.0007  -0.0007   179.5065    -0.3412   139.9791
2422 357385.000    -34 58 17.36595     138 38 23.92333   165.5383   1  -0.0007   0.0010  -0.0038   179.5034    -0.3380   139.9702
2422 357386.000    -34 58 17.36589     138 38 23.92331   165.5318   1   0.0009  -0.0002   0.0000   179.4991    -0.3341   139.9893
2422 357387.000    -34 58 17.36592     138 38 23.92339   165.5375   1  -0.0009   0.0002   0.0022   179.4945    -0.3351   139.9708
2422 357388.000    -34 58 17.36593     138 38 23.92326   165.5362   1  -0.0004  -0.0013  -0.0004   179.4914    -0.3345   139.9556
2422 357389.000    -34 58 17.36594     138 38 23.92336   165.5353   1   0.0006   0.0008   0.0027   179.4882    -0.3280   139.9596
2422 357390.000    -34 58 17.36591     138 38 23.92328   165.5383   1   0.0003  -0.0007  -0.0009   179.4838    -0.3248   139.9497
2422 357391.000    -34 58 17.36596     138 38 23.92343   165.5327   1  -0.0012   0.0010  -0.0007   179.4800    -0.3206   139.9552
2422 357392.000    -34 58 17.36587     138 38 23.92323   165.5341   1  -0.0036   0.0005  -0.0002   179.4796    -0.3162   139.9540
2422 357393.000    -34 58 17.36590     138 38 23.92326   165.5338   1   0.0008  -0.0013  -0.0001   179.4770    -0.3151   139.9289
2422 357394.000    -34 58 17.36594     138 38 23.92327   165.5299   1  -0.0003   0.0006   0.0024   179.4652    -0.2241   139.9196
2422 357395.000    -34 58 17.36589     138 38 23.92331   165.5370   1  -0.0002   0.0007   0.0040   179.5069    -0.3576   139.9202
2422 357396.000    -34 58 17.36593     138 38 23.92333   165.5357   1  -0.0014  -0.0011   0.0010   179.4605    -0.3592   139.9191
2422 357397.000    -34 58 17.36586     138 38 23.92318   165.5363   1  -0.0212   0.0007  -0.0003   179.4685    -0.3494   139.9218
2422 357398.000    -34 58 17.36594     138 38 23.92328   165.5337   1   0.0419  -0.0059  -0.0178   179.4518    -0.3581   139.9174
2422 357399.000    -34 58 17.36759     138 38 23.92266   165.5445   1  -0.1010  -0.0529   0.0245   179.4490    -0.3542   138.5283
2422 357400.000    -34 58 17.36694     138 38 23.92196   165.5305   1   0.0440   0.0541   0.0023   179.4279    -0.2610   140.6007
2422 357401.000    -34 58 17.36655     138 38 23.92260   165.5368   1   0.0062  -0.0176   0.0076   179.3895    -0.4317   139.5360
2422 357402.000    -34 58 17.36645     138 38 23.92275   165.5339   1   0.0002   0.0089  -0.0050   179.4199    -0.3968   139.7204
2422 357403.000    -34 58 17.36646     138 38 23.92273   165.5362   1  -0.0153  -0.0067   0.0071   179.3901    -0.3741   139.7695
2422 357404.000    -34 58 17.36641     138 38 23.92274   165.5391   1   0.0428  -0.0023  -0.0087   179.4246    -0.3333   139.8226
2422 357405.000    -34 58 17.36717     138 38 23.92202   165.5238   1  -0.1289  -0.0623   0.0326   179.3107    -0.2485   139.9922
2422 357406.000    -34 58 17.37083     138 38 23.91749   165.5254   1  -0.0166  -0.0874  -0.0488   179.3460    -0.2479   139.6350
2422 357407.000    -34 58 17.37069     138 38 23.91797   165.5339   1  -0.0079   0.0327   0.0248   179.3215    -0.2559   139.9974
2422 357408.000    -34 58 17.37059     138 38 23.91836   165.5329   1  -0.0343   0.0186  -0.0026   179.3185    -0.2542   139.6825
2422 357409.000    -34 58 17.37362     138 38 23.91524   165.5485   1  -0.1026  -0.2270   0.0517   179.2788    -0.2495   139.8634
2422 357410.000    -34 58 17.37997     138 38 23.90836   165.5720   1  -0.1957  -0.1878  -0.0140   179.2591    -0.3842   139.5924
2422 357411.000    -34 58 17.38660     138 38 23.90183   165.5554   1  -0.1642  -0.2216  -0.0058   179.2680    -0.2328   139.0813
2422 357412.000    -34 58 17.39330     138 38 23.89493   165.5510   1  -0.1770  -0.1916   0.0116   179.1945    -0.2992   139.2116
2422 357413.000    -34 58 17.39960     138 38 23.88772   165.5703   1  -0.1872  -0.2033   0.0093   179.2005    -0.3734   139.2329
2422 357414.000    -34 58 17.40618     138 38 23.88095   165.5730   1  -0.1579  -0.2060   0.0044   179.1284    -0.5088   138.8835
2422 357415.000    -34 58 17.41285     138 38 23.87431   165.5891   1  -0.1847  -0.1990   0.0161   179.1669    -0.5269   138.9165
2422 357416.000    -34 58 17.41898     138 38 23.86700   165.5845   1  -0.1733  -0.1923  -0.0113   179.1664    -0.5741   138.8523
2422 357417.000    -34 58 17.42545     138 38 23.86058   165.5803   1  -0.1570  -0.1939  -0.0121   179.1342    -0.6573   138.5632
2422 357418.000    -34 58 17.43195     138 38 23.85371   165.5760   1  -0.1858  -0.2128  -0.0051   179.1505    -0.7422   138.9468
2422 357419.000    -34 58 17.43837     138 38 23.84707   165.5811   1  -0.1559  -0.1924   0.0203   179.2209    -0.8456   138.3234
2422 357420.000    -34 58 17.44508     138 38 23.84051   165.6033   1  -0.1960  -0.2191   0.0134   179.2632    -0.9459   137.9272
2422 357421.000    -34 58 17.45204     138 38 23.83255   165.6076   1  -0.1792  -0.2160   0.0150   179.3397    -1.1788   138.2832
2422 357422.000    -34 58 17.45880     138 38 23.82565   165.6128   1  -0.1708  -0.2091   0.0059   179.3758    -1.1528   138.0135
2422 357423.000    -34 58 17.46577     138 38 23.81885   165.6209   1  -0.1945  -0.2146   0.0058   179.4437    -1.1405   137.5403
2422 357424.000    -34 58 17.47273     138 38 23.81137   165.6393   1  -0.1807  -0.2341  -0.0022   179.4796    -1.1881   137.6769
2422 357425.000    -34 58 17.47935     138 38 23.80478   165.6191   1  -0.1374  -0.1147   0.0067   179.6076    -1.1882   137.4056
2422 357426.000    -34 58 17.48314     138 38 23.79949   165.6302   1  -0.0739  -0.1040   0.0018   179.6105    -1.1830   137.8525
2422 357427.000    -34 58 17.48317     138 38 23.79998   165.6292   1   0.0009   0.0186  -0.0026   179.7223    -1.3248   137.4313
2422 357428.000    -34 58 17.48320     138 38 23.80004   165.6291   1   0.0947   0.0383  -0.0352   179.7061    -1.2415   137.6051
2422 357429.000    -34 58 17.48054     138 38 23.80355   165.6106   1  -0.0054   0.0492   0.0512   179.6882    -1.2012   136.8698
2422 357430.000    -34 58 17.48114     138 38 23.80249   165.6312   1  -0.0009  -0.0750  -0.0095   179.6874    -1.0150   137.8536
2422 357431.000    -34 58 17.48132     138 38 23.80255   165.6223   1  -0.0831   0.0584   0.0166   179.3912    -0.6715   137.1255
2422 357432.000    -34 58 17.47962     138 38 23.80352   165.6532   1   0.2435   0.1565  -0.0367   179.5250    -0.6588   137.8512
2422 357433.000    -34 58 17.47089     138 38 23.81289   165.6050   1   0.2248   0.2473  -0.0087   179.4629    -0.5782   137.3644
2422 357434.000    -34 58 17.46266     138 38 23.82230   165.5961   1   0.2826   0.2471   0.0015   179.4131    -0.5257   137.2035
2422 357435.000    -34 58 17.45425     138 38 23.83106   165.5955   1   0.1719   0.3036  -0.0606   179.2888    -0.4176   137.7753
2422 357436.000    -34 58 17.44305     138 38 23.83766   165.5871   1   0.2527   0.2546   0.0648   179.2547    -0.3939   140.6533
2422 357437.000    -34 58 17.43451     138 38 23.84679   165.5830   1   0.1484   0.3148  -0.0091   179.1691    -0.1261   140.2375
2422 357438.000    -34 58 17.42583     138 38 23.85373   165.5806   1   0.1891   0.2460   0.0089   178.9803     0.0181   141.6757
2422 357439.000    -34 58 17.41748     138 38 23.86151   165.5772   1   0.2174   0.2632  -0.0144   179.2166     0.0555   141.8112
2422 357440.000    -34 58 17.40892     138 38 23.86922   165.5597   1   0.1716   0.2441   0.0069   179.1618     0.0036   142.2551
2422 357441.000    -34 58 17.40021     138 38 23.87660   165.5672   1   0.2164   0.2402   0.0015   179.3845    -0.0717   142.6696
2422 357442.000    -34 58 17.39150     138 38 23.88403   165.5671   1   0.1772   0.3203  -0.0315   179.2350    -0.1158   143.0106
2422 357443.000    -34 58 17.38514     138 38 23.89541   165.5972   1   0.3009   0.0729   0.0871   179.0934    -0.0877   136.6368
2422 357444.000    -34 58 17.37604     138 38 23.90202   165.5662   1   0.1390   0.3707  -0.0542   179.2235     0.0239   140.8482
2422 357445.000    -34 58 17.36759     138 38 23.90994   165.5553   1   0.2545   0.2314  -0.0002   179.4052     0.0083   140.8995
2422 357446.000    -34 58 17.35940     138 38 23.91861   165.5485   1   0.2167   0.2135  -0.0066   179.4018     0.0336   140.2120
2422 357447.000    -34 58 17.35129     138 38 23.92727   165.5514   1   0.2375   0.2467   0.0176   179.3785     0.1624   140.0097
2422 357448.000    -34 58 17.34350     138 38 23.93718   165.5528   1   0.2979   0.2209  -0.0034   179.6121    -0.0449   138.5398
2422 357449.000    -34 58 17.33638     138 38 23.94925   165.5438   1   0.2852   0.2154  -0.0112   179.3133    -0.2754   134.4507
2422 357450.000    -34 58 17.32866     138 38 23.95812   165.5398   1   0.1957   0.2331   0.0007   179.3361    -0.1129   135.3243
2422 357451.000    -34 58 17.32121     138 38 23.96761   165.5321   1   0.2580   0.2394  -0.0295   179.3722     0.1585   134.4705
2422 357452.000    -34 58 17.31558     138 38 23.97589   165.5217   1   0.1134   0.0592   0.0448   179.3564    -0.1114   132.8845
2422 357453.000    -34 58 17.31511     138 38 23.97495   165.5364   1  -0.0418  -0.0055  -0.0057   179.4680    -0.1310   134.5844
2422 357454.000    -34 58 17.31258     138 38 23.97721   165.5221   1   0.1193   0.0855  -0.0537   179.3378    -0.0748   135.2935
2422 357455.000    -34 58 17.31177     138 38 23.97821   165.5370   1  -0.1532   0.0788   0.0006   179.2014    -0.1856   134.5258
2422 357456.000    -34 58 17.31596     138 38 23.97491   165.5423   1   0.0919  -0.1746   0.0732   179.2228    -0.1448   133.8211
2422 357457.000    -34 58 17.31688     138 38 23.97296   165.5314   1  -0.0761  -0.0350  -0.0223   179.3337    -0.2884   133.9408
2422 357458.000    -34 58 17.31684     138 38 23.97300   165.5306   1  -0.1214  -0.1728  -0.0092   179.0500    -0.2337   134.0107
2422 357459.000    -34 58 17.32382     138 38 23.96553   165.5176   1  -0.1823  -0.1613  -0.0325   179.2021     0.0733   133.2864
2422 357460.000    -34 58 17.33151     138 38 23.95644   165.5409   1  -0.2212  -0.3012   0.0401   179.0611    -0.1012   133.4756
2422 357461.000    -34 58 17.33929     138 38 23.94743   165.5334   1  -0.4041  -0.0569   0.0149   178.9861    -0.4266   133.1819
2422 357462.000    -34 58 17.34544     138 38 23.93065   165.5548   1  -0.1567  -0.3181   0.0059   178.9499    -0.0782   143.1680
2422 357463.000    -34 58 17.35375     138 38 23.92499   165.5610   1  -0.2962  -0.2946  -0.0101   179.0129    -0.0279   136.3423
2422 357464.000    -34 58 17.36160     138 38 23.91411   165.5608   1  -0.1953  -0.2704   0.0094   178.8337    -0.2565   139.5701
2422 357465.000    -34 58 17.36950     138 38 23.90449   165.5673   2  -0.2728  -0.2046  -0.0041   178.7335    -0.2400   140.4683
2422 357466.000    -34 58 17.37789     138 38 23.89551   165.5689   1  -0.1875  -0.2965   0.0148   178.6825    -0.2999   141.0906
2422 357467.000    -34 58 17.38640     138 38 23.88741   165.5734   1  -0.2743  -0.2674   0.0031   178.5310    -0.3797   141.2125
2422 357468.000    -34 58 17.39468     138 38 23.87663   165.5779   1  -0.1978  -0.2821  -0.0075   178.7116    -0.3173   145.4950
2422 357469.000    -34 58 17.40356     138 38 23.86697   165.5825   1  -0.2577  -0.2164  -0.0048   178.5095    -0.3848   146.7414
2422 357470.000    -34 58 17.41245     138 38 23.85977   165.5785   2  -0.1749  -0.3002  -0.0022   178.6635    -0.4232   146.9264
2422 357471.000    -34 58 17.42155     138 38 23.85231   165.5764   2  -0.1747  -0.2647   0.0001   178.7176    -0.5643   147.7721
2422 357472.000    -34 58 17.43081     138 38 23.84497   165.5959   1  -0.1975  -0.3002   0.0155   178.7334    -0.7594   148.2507
2422 357473.000    -34 58 17.43998     138 38 23.83799   165.5888   2  -0.1594  -0.3034   0.0009   178.7524    -0.9821   148.6930
2422 357474.000    -34 58 17.44983     138 38 23.83106   165.5984   1  -0.1907  -0.3227   0.0131   178.9894    -1.2070   148.3537
2422 357475.000    -34 58 17.46030     138 38 23.82418   165.6186   1  -0.1809  -0.3167   0.0332   179.1368    -1.1498   148.5196
2422 357476.000    -34 58 17.47119     138 38 23.81693   165.6385   1  -0.1495  -0.3233   0.0028   179.2094    -1.2082   148.7318
2422 357477.000    -34 58 17.48110     138 38 23.81064   165.6291   1  -0.2092  -0.3298  -0.0072   179.2864    -1.2123   148.0834
2422 357478.000    -34 58 17.49073     138 38 23.80419   165.6312   1  -0.0711  -0.1792  -0.0516   179.3462    -1.3985   148.3808
2422 357479.000    -34 58 17.49576     138 38 23.80098   165.6044   1  -0.1028  -0.1148   0.0435   179.4784    -1.3557   147.5442
2422 357480.000    -34 58 17.49593     138 38 23.80058   165.6094   1   0.0260   0.0154  -0.0275   179.4970    -1.3954   148.4978
2422 357481.000    -34 58 17.49606     138 38 23.80060   165.6027   1  -0.0147  -0.0283   0.0071   179.4739    -1.3667   148.4656
2422 357482.000    -34 58 17.49602     138 38 23.80077   165.6053   1   0.0680   0.0921   0.0105   179.5168    -1.2555   148.2703
2422 357483.000    -34 58 17.49282     138 38 23.80283   165.6123   1  -0.0287   0.0016   0.0036   179.4591    -1.2304   147.9962
2422 357484.000    -34 58 17.49294     138 38 23.80261   165.6103   1   0.0039   0.0067  -0.0119   179.4055    -0.9767   148.2862
2422 357485.000    -34 58 17.49317     138 38 23.80259   165.6131   1   0.0556   0.0411   0.0071   179.3431    -1.0439   148.4583
2422 357486.000    -34 58 17.49013     138 38 23.80467   165.6067   1   0.0788   0.1457   0.0072   179.2065    -1.0251   148.1583
2422 357487.000    -34 58 17.48496     138 38 23.80828   165.6180   1   0.0847   0.1433   0.0063   179.1061    -0.9713   148.1402
2422 357488.000    -34 58 17.47933     138 38 23.81216   165.6228   1   0.1016   0.1943   0.0098   179.0394    -0.8138   147.9048
2422 357489.000    -34 58 17.47328     138 38 23.81586   165.6367   2   0.0452   0.1626   0.0359   178.8944    -0.8377   147.5921
2422 357490.000    -34 58 17.46629     138 38 23.81892   165.6393   1   0.0746   0.2418  -0.0452   178.7881    -0.7322   149.6589
2422 357491.000    -34 58 17.45975     138 38 23.82162   165.6130   1   0.1163   0.1868  -0.0157   178.5295    -0.5333   150.6755
2422 357492.000    -34 58 17.45285     138 38 23.82494   165.6099   2   0.0886   0.2046  -0.0109   178.3402    -0.5014   150.6485
2422 357493.000    -34 58 17.44654     138 38 23.82847   165.5856   1   0.0781   0.1933  -0.0261   178.6509    -0.2703   151.4462
2422 357494.000    -34 58 17.44029     138 38 23.83143   165.5713   1   0.1018   0.1611  -0.0020   178.6554    -0.2162   151.6248
2422 357495.000    -34 58 17.43434     138 38 23.83487   165.5748   2   0.1208   0.1517   0.0390   178.4898    -0.1469   152.1060
2422 357496.000    -34 58 17.42897     138 38 23.84001   165.5905   1   0.1183   0.1904  -0.0061   178.5978    -0.1412   150.4497
2422 357497.000    -34 58 17.42412     138 38 23.85048   165.5741   1   0.2442   0.1021  -0.0322   178.6292    -0.1871   141.0904
2422 357498.000    -34 58 17.41947     138 38 23.85780   165.5868   1   0.0948   0.1910   0.0293   178.6381    -0.2071   138.0055
2422 357499.000    -34 58 17.41418     138 38 23.85915   165.5934   1   0.1562   0.1534   0.0305   178.6749    -0.2185   142.6012
2422 357500.000    -34 58 17.40902     138 38 23.86527   165.6047   1   0.1662   0.1153  -0.0321   178.8181    -0.1484   140.0410
2422 357501.000    -34 58 17.40415     138 38 23.87077   165.5752   1   0.1252   0.1636  -0.0124   178.9355    -0.2020   139.3028
2422 357502.000    -34 58 17.39898     138 38 23.87622   165.5832   1   0.1485   0.1515  -0.0027   179.1308    -0.2306   138.6249
2422 357503.000    -34 58 17.39398     138 38 23.88140   165.5725   1   0.1042   0.1699   0.0145   178.7704    -0.3730   137.8561
2422 357504.000    -34 58 17.38886     138 38 23.88716   165.5840   1   0.2017   0.0931   0.0131   178.7468    -0.4066   137.0795
2422 357505.000    -34 58 17.38449     138 38 23.89265   165.5866   1   0.1194   0.1950   0.0012   178.8400    -0.3440   137.1588
2422 357506.000    -34 58 17.37999     138 38 23.89982   165.5990   1   0.1716   0.1152  -0.0081   178.8142    -0.2691   134.0031
2422 357507.000    -34 58 17.37545     138 38 23.90562   165.5858   1   0.1440   0.1615  -0.0071   178.8223    -0.2355   133.8351
2422 357508.000    -34 58 17.37071     138 38 23.91170   165.5877   1   0.1332   0.1307  -0.0072   178.8266    -0.2203   133.0337
2422 357509.000    -34 58 17.36632     138 38 23.91710   165.5704   1   0.1571   0.1542   0.0010   178.8442    -0.1665   132.6792
2422 357510.000    -34 58 17.36168     138 38 23.92303   165.5578   1   0.1520   0.1393  -0.0095   178.7550    -0.2001   132.1302
2422 357511.000    -34 58 17.35713     138 38 23.92871   165.5698   1   0.1354   0.1362   0.0012   178.8791    -0.1611   131.8349
2422 357512.000    -34 58 17.35226     138 38 23.93464   165.5647   1   0.1470   0.1500   0.0003   178.8276     0.0019   131.5033
2422 357513.000    -34 58 17.34776     138 38 23.94047   165.5578   1   0.1577   0.1419  -0.0013   178.8093     0.0109   131.2150
2422 357514.000    -34 58 17.34307     138 38 23.94641   165.5487   1   0.1521   0.1435  -0.0116   178.8735     0.0193   130.8711
2422 357515.000    -34 58 17.33874     138 38 23.95230   165.5363   1   0.1325   0.1221  -0.0177   178.8516    -0.0177   130.6596
2422 357516.000    -34 58 17.33403     138 38 23.95808   165.5335   1   0.1574   0.1587   0.0028   178.8592    -0.0346   130.2830
2422 357517.000    -34 58 17.33012     138 38 23.96265   165.5366   1   0.0328   0.0656   0.0190   178.8382    -0.0232   130.2094
2422 357518.000    -34 58 17.33002     138 38 23.96249   165.5488   1   0.0139  -0.0363  -0.0005   178.8461     0.0001   130.2814
2422 357519.000    -34 58 17.32990     138 38 23.96274   165.5395   1  -0.0096   0.0313  -0.0041   178.8402    -0.0336   130.6145
2422 357520.000    -34 58 17.32986     138 38 23.96292   165.5356   1   0.0299  -0.0113  -0.0155   178.8236    -0.0612   130.2229
2422 357521.000    -34 58 17.32985     138 38 23.96285   165.5397   1  -0.0545   0.0040   0.0113   178.7964    -0.0782   130.4486
